COMMENT,ORIGINATOR,NORAD_CAT_ID,OBJECT_NAME,OBJECT_TYPE,CLASSIFICATION_TYPE,INTLDES,EPOCH,EPOCH_MICROSECONDS,MEAN_MOTION,ECCENTRICITY,INCLINATION,RA_OF_ASC_NODE,ARG_OF_PERICENTER,MEAN_ANOMALY,EPHEMERIS_TYPE,ELEMENT_SET_NO,REV_AT_EPOCH,BSTAR,MEAN_MOTION_DOT,MEAN_MOTION_DDOT,FILE,TLE_LINE0,TLE_LINE1,TLE_LINE2,OBJECT_ID,OBJECT_NUMBER,SEMIMAJOR_AXIS,PERIOD,APOGEE,PERIGEE,DECAYED,date
GENERATED VIA SPACETRACK.ORG API,18 SPCS,48895,SPACEBEE-108,PAYLOAD,U,21059S,2023/3/30 14:25,574240,15.26202249,0.0008464,97.5843,225.0556,192.126,167.9775,0,999,9738,0.0018112,0.00047075,0,3875726,0 SPACEBEE-108,1 48895U 21059S   23089.60121035  .00047075  00000-0  18112-2 0  9999,2 48895  97.5843 225.0556 0008464 192.1260 167.9775 15.26202249 97382,2021-059S,48895,6865.315,94.352,492.99,481.369,0,
GENERATED VIA SPACETRACK.ORG API,18 SPCS,48895,SPACEBEE-108,PAYLOAD,U,21059S,2023/3/31 20:19,408672,15.26319446,0.0008378,97.5843,226.3197,187.8505,172.2603,0,999,9757,0.0017023,0.0004438,0,3876464,0 SPACEBEE-108,1 48895U 21059S   23090.84687973  .00044380  00000-0  17023-2 0  9991,2 48895  97.5843 226.3197 0008378 187.8505 172.2603 15.26319446 97572,2021-059S,48895,6864.963,94.345,492.58,481.077,0,
GENERATED VIA SPACETRACK.ORG API,18 SPCS,48895,SPACEBEE-108,PAYLOAD,U,21059S,2023/4/1 13:37,559072,15.26376743,0.0008352,97.5845,227.052,185.0351,175.0804,0,999,9768,0.0014922,0.00038932,0,3877270,0 SPACEBEE-108,1 48895U 21059S   23091.56801573  .00038932  00000-0  14922-2 0  9996,2 48895  97.5845 227.0520 0008352 185.0351 175.0804 15.26376743 97682,2021-059S,48895,6864.791,94.341,492.39,480.923,0,
GENERATED VIA SPACETRACK.ORG API,18 SPCS,48895,SPACEBEE-108,PAYLOAD,U,21059S,2023/4/1 19:55,755008,15.26399997,0.0008345,97.5846,227.3183,184.1339,175.9831,0,999,9772,0.001553,0.00040558,0,3877516,0 SPACEBEE-108,1 48895U 21059S   23091.83024022  .00040558  00000-0  15530-2 0  9995,2 48895  97.5846 227.3183 0008345 184.1339 175.9831 15.26399997 97729,2021-059S,48895,6864.722,94.34,492.315,480.858,0,
GENERATED VIA SPACETRACK.ORG API,18 SPCS,48895,SPACEBEE-108,PAYLOAD,U,21059S,2023/4/2 2:13,645952,15.26420778,0.0008343,97.5846,227.5846,183.1821,176.9366,0,999,9776,0.0016169,0.00042266,0,3877609,0 SPACEBEE-108,1 48895U 21059S   23092.09246118  .00042266  00000-0  16169-2 0  9993,2 48895  97.5846 227.5846 0008343 183.1821 176.9366 15.26420778 97760,2021-059S,48895,6864.659,94.338,492.252,480.797,0,
GENERATED VIA SPACETRACK.ORG API,18 SPCS,48895,SPACEBEE-108,PAYLOAD,U,21059S,2023/4/2 13:13,674048,15.26457328,0.0008347,97.5847,228.0508,181.9118,178.209,0,999,9783,0.001567,0.00040998,0,3878126,0 SPACEBEE-108,1 48895U 21059S   23092.55133882  .00040998  00000-0  15670-2 0  9993,2 48895  97.5847 228.0508 0008347 181.9118 178.2090 15.26457328 97839,2021-059S,48895,6864.55,94.336,492.145,480.685,0,
GENERATED VIA SPACETRACK.ORG API,18 SPCS,48895,SPACEBEE-108,PAYLOAD,U,21059S,2023/4/2 21:05,404160,15.26479335,0.0008359,97.5848,228.3836,180.8922,179.2302,0,999,9788,0.0012913,0.00033761,0,3878419,0 SPACEBEE-108,1 48895U 21059S   23092.87910190  .00033761  00000-0  12913-2 0  9990,2 48895  97.5848 228.3836 0008359 180.8922 179.2302 15.26479335 97885,2021-059S,48895,6864.484,94.335,492.087,480.611,0,
GENERATED VIA SPACETRACK.ORG API,18 SPCS,48895,SPACEBEE-108,PAYLOAD,U,21059S,2023/4/3 8:06,863232,15.2651884,0.0008289,97.5849,228.8496,179.7509,180.3735,0,999,9795,0.0015479,0.00040569,0,3878810,0 SPACEBEE-108,1 48895U 21059S   23093.33796138  .00040569  00000-0  15479-2 0  9990,2 48895  97.5849 228.8496 0008289 179.7509 180.3735 15.26518840 97959,2021-059S,48895,6864.365,94.332,491.92,480.541,0,
GENERATED VIA SPACETRACK.ORG API,18 SPCS,48895,SPACEBEE-108,PAYLOAD,U,21059S,2023/4/3 8:06,863232,15.2651884,0.0008289,97.5849,228.8496,179.7509,180.3735,0,999,9795,0.0015479,0.00040569,0,3879059,0 SPACEBEE-108,1 48895U 21059S   23093.33796138  .00040569  00000-0  15479-2 0  9990,2 48895  97.5849 228.8496 0008289 179.7509 180.3735 15.26518840 97959,2021-059S,48895,6864.365,94.332,491.92,480.541,0,
GENERATED VIA SPACETRACK.ORG API,18 SPCS,48895,SPACEBEE-108,PAYLOAD,U,21059S,2023/4/4 7:42,238496,15.26597219,0.0008228,97.5854,229.848,176.8267,183.3025,0,999,9810,0.0015576,0.00040922,0,3879974,0 SPACEBEE-108,1 48895U 21059S   23094.32119489  .00040922  00000-0  15576-2 0  9999,2 48895  97.5854 229.8480 0008228 176.8267 183.3025 15.26597219 98101,2021-059S,48895,6864.13,94.327,491.643,480.348,0,
GENERATED VIA SPACETRACK.ORG API,18 SPCS,48895,SPACEBEE-108,PAYLOAD,U,21059S,2023/4/4 21:51,945472,15.26641247,0.0008223,97.5858,230.4471,174.5531,185.5798,0,999,9819,0.0013639,0.00035847,0,3880211,0 SPACEBEE-108,1 48895U 21059S   23094.91111048  .00035847  00000-0  13639-2 0  9995,2 48895  97.5858 230.4471 0008223 174.5531 185.5798 15.26641247 98198,2021-059S,48895,6863.999,94.325,491.508,480.219,0,
GENERATED VIA SPACETRACK.ORG API,18 SPCS,48895,SPACEBEE-108,PAYLOAD,U,21059S,2023/4/4 21:51,945472,15.26641247,0.0008223,97.5858,230.4471,174.5531,185.5798,0,999,9819,0.0013639,0.00035847,0,3880314,0 SPACEBEE-108,1 48895U 21059S   23094.91111048  .00035847  00000-0  13639-2 0  9995,2 48895  97.5858 230.4471 0008223 174.5531 185.5798 15.26641247 98198,2021-059S,48895,6863.999,94.325,491.508,480.219,0,
GENERATED VIA SPACETRACK.ORG API,18 SPCS,48895,SPACEBEE-108,PAYLOAD,U,21059S,2023/4/5 8:52,236608,15.26677733,0.0008216,97.5859,230.9132,172.8829,187.2528,0,999,9826,0.0014411,0.00037933,0,3880853,0 SPACEBEE-108,1 48895U 21059S   23095.36992172  .00037933  00000-0  14411-2 0  9997,2 48895  97.5859 230.9132 0008216 172.8829 187.2528 15.26677733 98268,2021-059S,48895,6863.889,94.322,491.394,480.115,0,
GENERATED VIA SPACETRACK.ORG API,18 SPCS,48895,SPACEBEE-108,PAYLOAD,U,21059S,2023/4/5 19:53,633504,15.26711927,0.0008223,97.5861,231.3792,171.139,188.9995,0,999,9833,0.0013824,0.00036415,0,3881153,0 SPACEBEE-108,1 48895U 21059S   23095.82872261  .00036415  00000-0  13824-2 0  9995,2 48895  97.5861 231.3792 0008223 171.1390 188.9995 15.26711927 98339,2021-059S,48895,6863.787,94.32,491.296,480.008,0,
GENERATED VIA SPACETRACK.ORG API,18 SPCS,48895,SPACEBEE-108,PAYLOAD,U,21059S,2023/4/6 8:28,926944,15.26747931,0.0008208,97.586,231.9117,169.3027,190.8387,0,999,9841,0.0013374,0.0003526,0,3881571,0 SPACEBEE-108,1 48895U 21059S   23096.35305471  .00035260  00000-0  13374-2 0  9995,2 48895  97.5860 231.9117 0008208 169.3027 190.8387 15.26747931 98414,2021-059S,48895,6863.679,94.318,491.177,479.91,0,
GENERATED VIA SPACETRACK.ORG API,18 SPCS,48895,SPACEBEE-108,PAYLOAD,U,21059S,2023/4/6 8:28,926944,15.26747931,0.0008208,97.586,231.9117,169.3027,190.8387,0,999,9841,0.0013374,0.0003526,0,3881771,0 SPACEBEE-108,1 48895U 21059S   23096.35305471  .00035260  00000-0  13374-2 0  9995,2 48895  97.5860 231.9117 0008208 169.3027 190.8387 15.26747931 98414,2021-059S,48895,6863.679,94.318,491.177,479.91,0,
GENERATED VIA SPACETRACK.ORG API,18 SPCS,48895,SPACEBEE-108,PAYLOAD,U,21059S,2023/4/6 19:29,475744,15.26780888,0.0008215,97.5862,232.3777,168.0229,192.1206,0,999,9848,0.001288,0.00033983,0,3882049,0 SPACEBEE-108,1 48895U 21059S   23096.81183421  .00033983  00000-0  12880-2 0  9996,2 48895  97.5862 232.3777 0008215 168.0229 192.1206 15.26780888 98481,2021-059S,48895,6863.58,94.316,491.083,479.807,0,
GENERATED VIA SPACETRACK.ORG API,18 SPCS,48895,SPACEBEE-108,PAYLOAD,U,21059S,2023/4/7 14:21,320800,15.26838994,0.0008211,97.5865,233.1766,165.7758,194.3713,0,999,9860,0.0014401,0.00038092,0,3882626,0 SPACEBEE-108,1 48895U 21059S   23097.59829075  .00038092  00000-0  14401-2 0  9991,2 48895  97.5865 233.1766 0008211 165.7758 194.3713 15.26838994 98601,2021-059S,48895,6863.406,94.312,490.906,479.635,0,
GENERATED VIA SPACETRACK.ORG API,18 SPCS,48895,SPACEBEE-108,PAYLOAD,U,21059S,2023/4/7 14:21,320800,15.26838994,0.0008211,97.5865,233.1766,165.7758,194.3713,0,999,9860,0.0014401,0.00038092,0,3882684,0 SPACEBEE-108,1 48895U 21059S   23097.59829075  .00038092  00000-0  14401-2 0  9991,2 48895  97.5865 233.1766 0008211 165.7758 194.3713 15.26838994 98601,2021-059S,48895,6863.406,94.312,490.906,479.635,0,
GENERATED VIA SPACETRACK.ORG API,18 SPCS,48895,SPACEBEE-108,PAYLOAD,U,21059S,2023/4/8 7:39,473408,15.26887421,0.0008232,97.5869,233.9094,163.4903,196.6605,0,999,9871,0.0012549,0.00033211,0,3883527,0 SPACEBEE-108,1 48895U 21059S   23098.31918372  .00033211  00000-0  12549-2 0  9990,2 48895  97.5869 233.9094 0008232 163.4903 196.6605 15.26887421 98713,2021-059S,48895,6863.261,94.31,490.776,479.476,0,
GENERATED VIA SPACETRACK.ORG API,18 SPCS,48895,SPACEBEE-108,PAYLOAD,U,21059S,2023/4/8 20:14,469664,15.26925343,0.0008245,97.5872,234.4421,161.4566,198.6974,0,999,9879,0.001266,0.00033545,0,3883594,0 SPACEBEE-108,1 48895U 21059S   23098.84345451  .00033545  00000-0  12660-2 0  9994,2 48895  97.5872 234.4421 0008245 161.4566 198.6974 15.26925343 98799,2021-059S,48895,6863.147,94.307,490.671,479.353,0,
GENERATED VIA SPACETRACK.ORG API,18 SPCS,48895,SPACEBEE-108,PAYLOAD,U,21059S,2023/4/9 8:49,444672,15.26960496,0.0008285,97.5873,234.9748,159.4601,200.6972,0,999,9887,0.0012774,0.00033886,0,3884332,0 SPACEBEE-108,1 48895U 21059S   23099.36771348  .00033886  00000-0  12774-2 0  9994,2 48895  97.5873 234.9748 0008285 159.4601 200.6972 15.26960496 98877,2021-059S,48895,6863.042,94.305,490.593,479.221,0,
GENERATED VIA SPACETRACK.ORG API,18 SPCS,48895,SPACEBEE-108,PAYLOAD,U,21059S,2023/4/10 2:07,690624,15.2700683,0.0008294,97.5873,235.7074,157.3524,202.8082,0,999,9898,0.0012241,0.00032508,0,3884718,0 SPACEBEE-108,1 48895U 21059S   23100.08854966  .00032508  00000-0  12241-2 0  9993,2 48895  97.5873 235.7074 0008294 157.3524 202.8082 15.27006830 98981,2021-059S,48895,6862.903,94.302,490.46,479.076,0,
